{"type": "FeatureCollection", "name": "okikineushi", "crs": {"type": "name", "properties": {"name": "urn:ogc:def:crs:EPSG::4612"}}, "features": [{"type": "Feature", "properties": {"KEY_CODE": "014590320", "PREF_NAME": "北海道", "CITY_NAME": "美瑛町", "S_NAME": "字置杵牛", "出典": "総務省統計局「令和2年国勢調査 町丁・字等別境界データ」を加工して作成"}, "geometry": {"type": "Polygon", "coordinates": [[[142.5561902, 43.5942317], [142.5559181, 43.5931724], [142.556145, 43.5925965], [142.5563269, 43.5924809], [142.5566919, 43.5922834], [142.5575708, 43.592132], [142.5584001, 43.5919031], [142.5584887, 43.5913635], [142.558688, 43.5904631], [142.5591604, 43.5898153], [142.5598507, 43.5891856], [142.5609567, 43.5884695], [142.5617807, 43.5876804], [142.56509, 43.5861372], [142.5663987, 43.5854508], [142.5677912, 43.5841015], [142.5688841, 43.5826235], [142.5696133, 43.5813767], [142.5700252, 43.5807748], [142.5710622, 43.5802952], [142.5710631, 43.5803176], [142.572196, 43.5803293], [142.5733553, 43.5802171], [142.5744124, 43.5798604], [142.5782111, 43.5781504], [142.5800583, 43.5777671], [142.581324, 43.5780114], [142.5829662, 43.576713], [142.5839087, 43.5762016], [142.5852103, 43.5757503], [142.5865354, 43.5755115], [142.5883917, 43.5753744], [142.5906992, 43.5756], [142.5930558, 43.5711254], [142.5940368, 43.5695821], [142.5950164, 43.5688232], [142.5959341, 43.5684802], [142.5983888, 43.568589], [142.5998162, 43.5681911], [142.6013509, 43.5661215], [142.6026418, 43.5649866], [142.6031231, 43.5646062], [142.6043283, 43.5636535], [142.6061135, 43.5628787], [142.6103272, 43.5615293], [142.6126057, 43.5602741], [142.6143036, 43.5588397], [142.615698, 43.557176], [142.6166817, 43.5553187], [142.6182856, 43.5530023], [142.6082112, 43.5454229], [142.6071327, 43.5394712], [142.6067133, 43.5374063], [142.6069715, 43.5364487], [142.6112128, 43.5338324], [142.6178338, 43.5302161], [142.6198757, 43.5289982], [142.6225312, 43.5285211], [142.6235291, 43.5283539], [142.6240601, 43.5282584], [142.6249221, 43.5282497], [142.6260267, 43.5284042], [142.6267026, 43.5282849], [142.6275404, 43.5282821], [142.6287648, 43.5282781], [142.6294083, 43.5281354], [142.6315619, 43.5272849], [142.6290139, 43.5268951], [142.6283692, 43.5268503], [142.6277895, 43.5268991], [142.6273068, 43.5269944], [142.6267922, 43.5271601], [142.6261807, 43.5272793], [142.6255365, 43.5273048], [142.6206725, 43.5275549], [142.6187088, 43.5278658], [142.6170838, 43.5282341], [142.6150254, 43.5288732], [142.6109029, 43.5301628], [142.6071259, 43.5315261], [142.6060551, 43.5269974], [142.6025402, 43.526271], [142.5978478, 43.5255564], [142.5978873, 43.5270124], [142.5969091, 43.5318952], [142.5968194, 43.5328047], [142.5963243, 43.5332402], [142.5956533, 43.5335336], [142.5943674, 43.5339622], [142.592783, 43.5346993], [142.5909487, 43.5357998], [142.5886691, 43.5374245], [142.5867151, 43.539054], [142.5852939, 43.5404265], [142.5842352, 43.5415454], [142.5829137, 43.5439245], [142.5815891, 43.5458761], [142.5802544, 43.5478425], [142.5773944, 43.5484809], [142.5717801, 43.5501029], [142.569971, 43.5506535], [142.5681195, 43.5513169], [142.5665323, 43.5519976], [142.5638903, 43.5535056], [142.562442, 43.5541724], [142.5610484, 43.5550622], [142.5595082, 43.5561789], [142.558107, 43.5572818], [142.5566728, 43.5591696], [142.5560406, 43.5609412], [142.5557903, 43.5629744], [142.5555766, 43.5647378], [142.5551242, 43.5659232], [142.5542854, 43.5667238], [142.5523983, 43.5677014], [142.5510576, 43.5683548], [142.5493511, 43.5691832], [142.5469437, 43.5699354], [142.5465488, 43.5705817], [142.5466636, 43.5724286], [142.5457865, 43.5730393], [142.544198, 43.5737085], [142.538811, 43.5765348], [142.5364005, 43.5776342], [142.5316456, 43.5795291], [142.5275294, 43.5815013], [142.5248888, 43.5826833], [142.5219543, 43.5843191], [142.521424, 43.5850912], [142.5214184, 43.585786], [142.5215739, 43.5862201], [142.5235469, 43.5884127], [142.5247212, 43.5882783], [142.533248, 43.5859869], [142.5388999, 43.5844221], [142.5441567, 43.5835147], [142.5454836, 43.5828953], [142.5461457, 43.5844403], [142.5474446, 43.5864212], [142.5490558, 43.5882912], [142.5495992, 43.5885319], [142.5501054, 43.5890743], [142.5508392, 43.5896551], [142.5523059, 43.5912], [142.5537937, 43.5939526], [142.5545949, 43.5938926], [142.5557271, 43.5942967], [142.5561902, 43.5942317]]]}}]}